[{"OBJECT_NAME":"STARLINK-34587","OBJECT_ID":"2025-144M","EPOCH":"2026-03-09T14:02:44.943360","MEAN_MOTION":15.30212261,"ECCENTRICITY":6.93e-5,"INCLINATION":53.1587,"RA_OF_ASC_NODE":181.6896,"ARG_OF_PERICENTER":74.6294,"MEAN_ANOMALY":285.4784,"EPHEMERIS_TYPE":0,"CLASSIFICATION_TYPE":"U","NORAD_CAT_ID":64735,"ELEMENT_SET_NO":999,"REV_AT_EPOCH":3964,"BSTAR":-0.00014419,"MEAN_MOTION_DOT":-4.628e-5,"MEAN_MOTION_DDOT":0},{"OBJECT_NAME":"CZ-4C R\/B","OBJECT_ID":"2023-123B","EPOCH":"2026-03-09T21:44:40.426944","MEAN_MOTION":15.36684191,"ECCENTRICITY":0.00627803,"INCLINATION":97.9677,"RA_OF_ASC_NODE":50.672,"ARG_OF_PERICENTER":67.0775,"MEAN_ANOMALY":293.7077,"EPHEMERIS_TYPE":0,"CLASSIFICATION_TYPE":"U","NORAD_CAT_ID":57655,"ELEMENT_SET_NO":999,"REV_AT_EPOCH":14181,"BSTAR":0.00052203987,"MEAN_MOTION_DOT":0.00019917,"MEAN_MOTION_DDOT":0}]
